NORAD_CAT_ID,OBJECT_NAME,OBJECT_TYPE,EPOCH,MEAN_MOTION,ECCENTRICITY,INCLINATION,RA_OF_ASC_NODE,ARG_OF_PERICENTER,MEAN_ANOMALY,BSTAR,MEAN_MOTION_DOT,MEAN_MOTION_DDOT,TLE_LINE0,TLE_LINE1,TLE_LINE2,SEMIMAJOR_AXIS,PERIOD,APOGEE,PERIGEE,DECAYED
53631.0,STARLINK-4599,PAYLOAD,2024-01-20 14:43:03,15.08841924,0.0001463,53.2175,131.3347,78.4248,281.6909,-1.4409e-05,-5.17e-06,0.0,0 STARLINK-4599,1 53631U 22104AV  24020.61323739 -.00000517  00000-0 -14409-4 0  9996,2 53631  53.2175 131.3347 0001463  78.4248 281.6909 15.08841924 78149,6917.875,95.437,540.752,538.727,0.0
53631.0,STARLINK-4599,PAYLOAD,2024-01-20 16:18:26,15.08843498,0.0001431,53.2175,131.0374,85.2075,274.9081,-1.3584e-06,-3.1e-06,0.0,0 STARLINK-4599,1 53631U 22104AV  24020.67947557 -.00000310  00000-0 -13584-5 0  9997,2 53631  53.2175 131.0374 0001431  85.2075 274.9081 15.08843498 78150,6917.87,95.437,540.725,538.745,0.0
53631.0,STARLINK-4599,PAYLOAD,2024-01-21 06:36:55,15.08839026,0.0001413,53.2171,128.3624,91.7726,268.3428,-7.9887e-06,-4.15e-06,0.0,0 STARLINK-4599,1 53631U 22104AV  24021.27564066 -.00000415  00000-0 -79887-5 0  9998,2 53631  53.2171 128.3624 0001413  91.7726 268.3428 15.08839026 78242,6917.883,95.438,540.726,538.771,0.0
53631.0,STARLINK-4599,PAYLOAD,2024-01-21 12:58:27,15.08848991,0.0001382,53.2178,127.1754,82.5338,277.5811,-1.8019e-05,-5.75e-06,0.0,0 STARLINK-4599,1 53631U 22104AV  24021.54059451 -.00000575  00000-0 -18019-4 0  9991,2 53631  53.2178 127.1754 0001382  82.5338 277.5811 15.08848991 77598,6917.853,95.437,540.674,538.762,0.0
53631.0,STARLINK-4599,PAYLOAD,2024-01-21 14:33:50,15.08847351,0.0001676,53.2165,126.8778,71.5976,288.5199,3.7864e-05,3.15e-06,0.0,0 STARLINK-4599,1 53631U 22104AV  24021.60683398  .00000315  00000-0  37864-4 0  9990,2 53631  53.2165 126.8778 0001676  71.5976 288.5199 15.08847351 78296,6917.858,95.437,540.882,538.563,0.0
53631.0,STARLINK-4599,PAYLOAD,2024-01-22 06:27:42,15.08841806,0.0001773,53.2169,123.9083,72.4207,287.6978,7.6771e-05,9.34e-06,0.0,0 STARLINK-4599,1 53631U 22104AV  24022.26923896  .00000934  00000-0  76771-4 0  9990,2 53631  53.2169 123.9083 0001773  72.4207 287.6978 15.08841806 78397,6917.875,95.437,540.966,538.513,0.0
53631.0,STARLINK-4599,PAYLOAD,2024-01-22 11:13:51,15.08838442,0.0001868,53.2175,123.0133,70.5855,289.5339,6.1394e-05,6.89e-06,0.0,0 STARLINK-4599,1 53631U 22104AV  24022.46796178  .00000689  00000-0  61394-4 0  9995,2 53631  53.2175 123.0133 0001868  70.5855 289.5339 15.08838442 77735,6917.885,95.438,541.042,538.458,0.0
53631.0,STARLINK-4599,PAYLOAD,2024-01-22 12:49:15,15.08838496,0.0001803,53.2178,122.7161,74.3088,285.8103,5.8106e-05,6.37e-06,0.0,0 STARLINK-4599,1 53631U 22104AV  24022.53420148  .00000637  00000-0  58106-4 0  9994,2 53631  53.2178 122.7161 0001803  74.3088 285.8103 15.08838496 78439,6917.885,95.438,540.997,538.503,0.0
53631.0,STARLINK-4599,PAYLOAD,2024-01-23 12:40:01,15.08847572,0.0001716,53.2177,118.2533,78.0951,282.0233,4.0543e-05,3.57e-06,0.0,0 STARLINK-4599,1 53631U 22104AV  24023.52779532  .00000357  00000-0  40543-4 0  9993,2 53631  53.2177 118.2533 0001716  78.0951 282.0233 15.08847572 77891,6917.857,95.437,540.909,538.535,0.0
53631.0,STARLINK-4599,PAYLOAD,2024-01-24 10:55:25,15.08836836,0.0001786,53.2178,114.0878,118.6021,241.5151,-9.2403e-06,-4.35e-06,0.0,0 STARLINK-4599,1 53631U 22104AV  24024.45516132 -.00000435  00000-0 -92403-5 0  9993,2 53631  53.2178 114.0878 0001786 118.6021 241.5151 15.08836836 78031,6917.89,95.438,540.991,538.52,0.0
53631.0,STARLINK-4599,PAYLOAD,2024-01-25 10:46:12,15.08844002,0.0001232,53.217,109.6274,93.2053,266.908,-4.0052e-05,-9.25e-06,0.0,0 STARLINK-4599,1 53631U 22104AV  24025.44876152 -.00000925  00000-0 -40052-4 0  9990,2 53631  53.2170 109.6274 0001232  93.2053 266.9080 15.08844002 78870,6917.868,95.437,540.585,538.881,0.0
53631.0,STARLINK-4599,PAYLOAD,2024-01-26 10:36:59,15.08840496,0.0001286,53.217,105.1672,89.4857,270.6283,0.00012728,1.738e-05,0.0,0 STARLINK-4599,1 53631U 22104AV  24026.44236051  .00001738  00000-0  12728-3 0  9998,2 53631  53.2170 105.1672 0001286  89.4857 270.6283 15.08840496 78332,6917.879,95.438,540.634,538.854,0.0
53631.0,STARLINK-4599,PAYLOAD,2024-01-27 10:27:47,15.08838868,0.0001332,53.2172,100.7071,79.4842,280.63,3.2661e-05,2.32e-06,0.0,0 STARLINK-4599,1 53631U 22104AV  24027.43596674  .00000232  00000-0  32661-4 0  9995,2 53631  53.2172 100.7071 0001332  79.4842 280.6300 15.08838868 78480,6917.884,95.438,540.67,538.827,0.0
53631.0,STARLINK-4599,PAYLOAD,2024-01-28 11:53:58,15.08803731,0.0001624,53.2177,95.9517,82.3258,277.7918,0.00054149,8.332e-05,0.0,0 STARLINK-4599,1 53631U 22104AV  24028.49581448  .00008332  00000-0  54149-3 0  9998,2 53631  53.2177  95.9517 0001624  82.3258 277.7918 15.08803731 78644,6917.991,95.44,540.98,538.733,0.0
53631.0,STARLINK-4599,PAYLOAD,2024-01-28 13:29:20,15.08841122,0.000151,53.2177,95.651,74.2204,285.8955,6.8255e-05,7.98e-06,0.0,0 STARLINK-4599,1 53631U 22104AV  24028.56204627  .00000798  00000-0  68255-4 0  9999,2 53631  53.2177  95.6510 0001510  74.2204 285.8955 15.08841122 79344,6917.877,95.437,540.787,538.697,0.0
53631.0,STARLINK-4599,PAYLOAD,2024-01-29 11:44:45,15.08810826,0.0001992,53.2191,91.4908,67.9767,292.1436,0.00060691,9.376e-05,0.0,0 STARLINK-4599,1 53631U 22104AV  24029.48941004  .00009376  00000-0  60691-3 0  9994,2 53631  53.2191  91.4908 0001992  67.9767 292.1436 15.08810826 78792,6917.97,95.439,541.213,538.457,0.0
53631.0,STARLINK-4599,PAYLOAD,2024-01-29 13:20:07,15.08847713,0.0001808,53.219,91.1887,61.159,298.9583,0.0001855,2.666e-05,0.0,0 STARLINK-4599,1 53631U 22104AV  24029.55563953  .00002666  00000-0  18550-3 0  9997,2 53631  53.2190  91.1887 0001808  61.1590 298.9583 15.08847713 78804,6917.857,95.437,540.973,538.471,0.0
53631.0,STARLINK-4599,PAYLOAD,2024-01-30 03:38:36,15.08838124,0.0002124,53.2188,88.5173,73.3925,286.73,5.846e-06,-1.95e-06,0.0,0 STARLINK-4599,1 53631U 22104AV  24030.15181323 -.00000195  00000-0  58460-5 0  9994,2 53631  53.2188  88.5173 0002124  73.3925 286.7300 15.08838124 78895,6917.886,95.438,541.22,538.282,0.0
53631.0,STARLINK-4599,PAYLOAD,2024-01-30 10:00:09,15.088388,0.0001618,53.2184,87.3253,95.3994,264.7183,-1.3718e-05,-5.06e-06,0.0,0 STARLINK-4599,1 53631U 22104AV  24030.41677104 -.00000506  00000-0 -13718-4 0  9993,2 53631  53.2184  87.3253 0001618  95.3994 264.7183 15.08838800 79622,6917.884,95.438,540.868,538.63,0.0
53631.0,STARLINK-4599,PAYLOAD,2024-01-31 09:50:55,15.08851373,0.0002065,53.2189,82.8652,131.0939,229.0232,-2.5575e-05,-6.95e-06,0.0,0 STARLINK-4599,1 53631U 22104AV  24031.41036145 -.00000695  00000-0 -25575-4 0  9991,2 53631  53.2189  82.8652 0002065 131.0939 229.0232 15.08851373 79083,6917.846,95.437,541.139,538.282,0.0
53631.0,STARLINK-4599,PAYLOAD,2024-01-31 13:01:41,15.0885273,0.000159,53.2179,82.2703,83.9289,276.1884,2.7035e-05,1.42e-06,0.0,0 STARLINK-4599,1 53631U 22104AV  24031.54284076  .00000142  00000-0  27035-4 0  9991,2 53631  53.2179  82.2703 0001590  83.9289 276.1884 15.08852730 79790,6917.841,95.437,540.806,538.607,0.0
53631.0,STARLINK-4599,PAYLOAD,2024-02-01 09:41:43,15.08837415,0.0001711,53.2185,78.4021,90.0469,270.0719,2.3994e-05,9.4e-07,0.0,0 STARLINK-4599,1 53631U 22104AV  24032.40397099  .00000094  00000-0  23994-4 0  9993,2 53631  53.2185  78.4021 0001711  90.0469 270.0719 15.08837415 79233,6917.888,95.438,540.937,538.57,0.0
53631.0,STARLINK-4599,PAYLOAD,2024-02-01 12:52:29,15.0883777,0.0001724,53.2186,77.8076,91.0414,269.0776,2.6915e-05,1.4e-06,0.0,0 STARLINK-4599,1 53631U 22104AV  24032.53645094  .00000140  00000-0  26915-4 0  9996,2 53631  53.2186  77.8076 0001724  91.0414 269.0776 15.08837770 79945,6917.887,95.438,540.945,538.56,0.0
53631.0,STARLINK-4599,PAYLOAD,2024-02-02 09:32:29,15.08842282,0.000168,53.2183,73.9412,90.889,269.2294,1.7071e-05,-1.6e-07,0.0,0 STARLINK-4599,1 53631U 22104AV  24033.39756826 -.00000016  00000-0  17071-4 0  9993,2 53631  53.2183  73.9412 0001680  90.8890 269.2294 15.08842282 80076,6917.873,95.437,540.901,538.576,0.0
53631.0,STARLINK-4599,PAYLOAD,2024-02-03 01:26:21,15.0883346,0.0001669,53.2183,70.9701,89.5688,270.5495,2.3848e-05,9.1e-07,0.0,0 STARLINK-4599,1 53631U 22104AV  24034.05997471  .00000091  00000-0  23848-4 0  9991,2 53631  53.2183  70.9701 0001669  89.5688 270.5495 15.08833460 79480,6917.9,95.438,540.92,538.611,0.0
53631.0,STARLINK-4599,PAYLOAD,2024-02-03 09:23:17,15.08838482,0.0001666,53.2182,69.4843,93.5381,266.5802,4.1253e-05,3.69e-06,0.0,0 STARLINK-4599,1 53631U 22104AV  24034.39117185  .00000369  00000-0  41253-4 0  9992,2 53631  53.2182  69.4843 0001666  93.5381 266.5802 15.08838482 80221,6917.885,95.438,540.903,538.598,0.0
53631.0,STARLINK-4599,PAYLOAD,2024-02-03 18:55:36,15.08838396,0.0001685,53.2184,67.7004,87.9834,272.1351,2.9934e-05,1.88e-06,0.0,0 STARLINK-4599,1 53631U 22104AV  24034.78861312  .00000188  00000-0  29934-4 0  9994,2 53631  53.2184  67.7004 0001685  87.9834 272.1351 15.08838396 80286,6917.885,95.438,540.916,538.585,0.0
53631.0,STARLINK-4599,PAYLOAD,2024-02-04 12:24:51,15.087952,0.0002002,53.2186,64.4299,93.6227,266.4994,0.00067437,0.00010448,0.0,0 STARLINK-4599,1 53631U 22104AV  24035.51726332  .00010448  00000-0  67437-3 0  9997,2 53631  53.2186  64.4299 0002002  93.6227 266.4994 15.08795200 79702,6918.017,95.44,541.267,538.497,0.0
53631.0,STARLINK-4599,PAYLOAD,2024-02-05 01:07:55,15.0884018,0.0001997,53.219,62.0505,93.8789,266.2431,1.0436e-05,-1.22e-06,0.0,0 STARLINK-4599,1 53631U 22104AV  24036.04717579 -.00000122  00000-0  10436-4 0  9996,2 53631  53.2190  62.0505 0001997  93.8789 266.2431 15.08840180 79788,6917.88,95.438,541.126,538.363,0.0
53631.0,STARLINK-4599,PAYLOAD,2024-02-05 09:04:51,15.08841919,0.0001637,53.218,60.5629,88.1639,271.9541,5.7527e-05,6.28e-06,0.0,0 STARLINK-4599,1 53631U 22104AV  24036.37837319  .00000628  00000-0  57527-4 0  9999,2 53631  53.2180  60.5629 0001637  88.1639 271.9541 15.08841919 80529,6917.875,95.437,540.872,538.607,0.0
